GLOBAL-9                
1 47971U 21023G   22259.37802458  .00014686  00000+0  33774-3 0  9994
2 47971  45.0039 325.0681 0006217 357.8155  99.6946 15.42583886 83617
